[{"OBJECT_NAME":"COSMOS 2529 (757)","OBJECT_ID":"2018-086A","EPOCH":"2026-02-27T08:59:15.336384","MEAN_MOTION":2.1310188,"ECCENTRICITY":0.00079597,"INCLINATION":64.2955,"RA_OF_ASC_NODE":196.2992,"ARG_OF_PERICENTER":253.0448,"MEAN_ANOMALY":106.8346,"EPHEMERIS_TYPE":0,"CLASSIFICATION_TYPE":"U","NORAD_CAT_ID":43687,"ELEMENT_SET_NO":999,"REV_AT_EPOCH":5694,"BSTAR":0,"MEAN_MOTION_DOT":8.0e-8,"MEAN_MOTION_DDOT":0},{"OBJECT_NAME":"COSMOS 2534 (758)","OBJECT_ID":"2019-030A","EPOCH":"2026-03-04T19:44:38.791680","MEAN_MOTION":2.13102294,"ECCENTRICITY":0.00096079,"INCLINATION":64.3687,"RA_OF_ASC_NODE":196.1275,"ARG_OF_PERICENTER":279.965,"MEAN_ANOMALY":74.0554,"EPHEMERIS_TYPE":0,"CLASSIFICATION_TYPE":"U","NORAD_CAT_ID":44299,"ELEMENT_SET_NO":999,"REV_AT_EPOCH":5269,"BSTAR":0,"MEAN_MOTION_DOT":8.0e-8,"MEAN_MOTION_DDOT":0},{"OBJECT_NAME":"COSMOS 2544 (759)","OBJECT_ID":"2019-088A","EPOCH":"2026-03-06T06:15:56.109312","MEAN_MOTION":2.13101873,"ECCENTRICITY":0.001578,"INCLINATION":65.5071,"RA_OF_ASC_NODE":77.1646,"ARG_OF_PERICENTER":259.762,"MEAN_ANOMALY":100.0954,"EPHEMERIS_TYPE":0,"CLASSIFICATION_TYPE":"U","NORAD_CAT_ID":44850,"ELEMENT_SET_NO":999,"REV_AT_EPOCH":4852,"BSTAR":0,"MEAN_MOTION_DOT":3.0e-8,"MEAN_MOTION_DDOT":0},{"OBJECT_NAME":"COSMOS 2545 (760)","OBJECT_ID":"2020-018A","EPOCH":"2026-03-05T01:10:22.448352","MEAN_MOTION":2.13102426,"ECCENTRICITY":0.0008063,"INCLINATION":64.4172,"RA_OF_ASC_NODE":316.0811,"ARG_OF_PERICENTER":250.0323,"MEAN_ANOMALY":109.9417,"EPHEMERIS_TYPE":0,"CLASSIFICATION_TYPE":"U","NORAD_CAT_ID":45358,"ELEMENT_SET_NO":999,"REV_AT_EPOCH":4644,"BSTAR":0,"MEAN_MOTION_DOT":-5.4e-7,"MEAN_MOTION_DDOT":0},{"OBJECT_NAME":"COSMOS 2547 (705K)","OBJECT_ID":"2020-075A","EPOCH":"2026-03-06T15:29:03.642720","MEAN_MOTION":2.13100263,"ECCENTRICITY":0.0006875,"INCLINATION":64.5994,"RA_OF_ASC_NODE":195.8945,"ARG_OF_PERICENTER":230.4824,"MEAN_ANOMALY":129.4314,"EPHEMERIS_TYPE":0,"CLASSIFICATION_TYPE":"U","NORAD_CAT_ID":46805,"ELEMENT_SET_NO":999,"REV_AT_EPOCH":4172,"BSTAR":0,"MEAN_MOTION_DOT":2.6e-7,"MEAN_MOTION_DDOT":0},{"OBJECT_NAME":"COSMOS 2557 (706K)","OBJECT_ID":"2022-075A","EPOCH":"2026-03-04T22:23:49.965216","MEAN_MOTION":2.13101614,"ECCENTRICITY":0.00115759,"INCLINATION":64.3588,"RA_OF_ASC_NODE":318.1599,"ARG_OF_PERICENTER":283.5582,"MEAN_ANOMALY":76.3723,"EPHEMERIS_TYPE":0,"CLASSIFICATION_TYPE":"U","NORAD_CAT_ID":52984,"ELEMENT_SET_NO":999,"REV_AT_EPOCH":2849,"BSTAR":0,"MEAN_MOTION_DOT":-5.7e-7,"MEAN_MOTION_DDOT":0},{"OBJECT_NAME":"COSMOS 2559 (707K)","OBJECT_ID":"2022-130A","EPOCH":"2026-03-05T16:35:12.302304","MEAN_MOTION":2.13101297,"ECCENTRICITY":0.00106092,"INCLINATION":64.331,"RA_OF_ASC_NODE":318.2203,"ARG_OF_PERICENTER":181.3136,"MEAN_ANOMALY":178.7423,"EPHEMERIS_TYPE":0,"CLASSIFICATION_TYPE":"U","NORAD_CAT_ID":54031,"ELEMENT_SET_NO":999,"REV_AT_EPOCH":2648,"BSTAR":0,"MEAN_MOTION_DOT":-6.0e-7,"MEAN_MOTION_DDOT":0},{"OBJECT_NAME":"COSMOS 2564 (761)","OBJECT_ID":"2022-161A","EPOCH":"2026-03-06T11:21:19.997568","MEAN_MOTION":2.13101994,"ECCENTRICITY":0.0009461,"INCLINATION":64.7415,"RA_OF_ASC_NODE":196.1184,"ARG_OF_PERICENTER":210.1148,"MEAN_ANOMALY":149.8044,"EPHEMERIS_TYPE":0,"CLASSIFICATION_TYPE":"U","NORAD_CAT_ID":54377,"ELEMENT_SET_NO":999,"REV_AT_EPOCH":2544,"BSTAR":0,"MEAN_MOTION_DOT":2.5e-7,"MEAN_MOTION_DDOT":0},{"OBJECT_NAME":"COSMOS 2569 (703K)","OBJECT_ID":"2023-114A","EPOCH":"2026-03-04T14:37:03.256608","MEAN_MOTION":2.13103963,"ECCENTRICITY":0.00128986,"INCLINATION":65.242,"RA_OF_ASC_NODE":76.146,"ARG_OF_PERICENTER":291.625,"MEAN_ANOMALY":68.2783,"EPHEMERIS_TYPE":0,"CLASSIFICATION_TYPE":"U","NORAD_CAT_ID":57517,"ELEMENT_SET_NO":999,"REV_AT_EPOCH":2003,"BSTAR":0,"MEAN_MOTION_DOT":1.1e-7,"MEAN_MOTION_DDOT":0},{"OBJECT_NAME":"COSMOS 2584 (704K)","OBJECT_ID":"2025-042A","EPOCH":"2026-02-28T17:48:18.452736","MEAN_MOTION":2.13103267,"ECCENTRICITY":0.00078227,"INCLINATION":65.0213,"RA_OF_ASC_NODE":76.4877,"ARG_OF_PERICENTER":236.244,"MEAN_ANOMALY":123.7373,"EPHEMERIS_TYPE":0,"CLASSIFICATION_TYPE":"U","NORAD_CAT_ID":63130,"ELEMENT_SET_NO":999,"REV_AT_EPOCH":773,"BSTAR":0,"MEAN_MOTION_DOT":3.9e-7,"MEAN_MOTION_DDOT":0},{"OBJECT_NAME":"COSMOS 2596 (708K)","OBJECT_ID":"2025-206B","EPOCH":"2026-03-06T10:53:53.482272","MEAN_MOTION":2.13100383,"ECCENTRICITY":0.0012861,"INCLINATION":64.6931,"RA_OF_ASC_NODE":318.564,"ARG_OF_PERICENTER":315.8873,"MEAN_ANOMALY":223.8531,"EPHEMERIS_TYPE":0,"CLASSIFICATION_TYPE":"U","NORAD_CAT_ID":65590,"ELEMENT_SET_NO":999,"REV_AT_EPOCH":372,"BSTAR":0,"MEAN_MOTION_DOT":-6.2e-7,"MEAN_MOTION_DDOT":0}]
